OBJECT_NAME,OBJECT_ID,EPOCH,MEAN_MOTION,ECCENTRICITY,INCLINATION,RA_OF_ASC_NODE,ARG_OF_PERICENTER,MEAN_ANOMALY,EPHEMERIS_TYPE,CLASSIFICATION_TYPE,NORAD_CAT_ID,ELEMENT_SET_NO,REV_AT_EPOCH,BSTAR,MEAN_MOTION_DOT,MEAN_MOTION_DDOT
STARLINK-36366,2026-044X,2026-06-26T15:20:39.052032,15.33444508,.0001057,97.2821,137.8681,93.6598,266.4766,0,U,68122,999,1828,.3184E-3,.10218E-3,0
STARLINK-36922,2026-044Y,2026-06-26T15:12:48.850272,15.33427851,.0001404,97.2827,137.8748,113.7069,246.4321,0,U,68123,999,1828,.33932E-3,.1089E-3,0
STARLINK-36938,2026-044Z,2026-06-26T15:08:17.409120,15.33426502,.0001737,97.2833,140.7739,88.0354,272.1088,0,U,68124,999,1847,.71691E-3,.23127E-3,0
STARLINK-36839,2026-044AA,2026-06-26T15:16:43.942944,15.33415043,.0001132,97.2820,137.8730,92.5656,267.5717,0,U,68125,999,1828,.7335E-3,.23657E-3,0
STARLINK-36604,2026-049A,2026-06-26T08:00:45.014112,15.33457244,.0000449,97.2842,198.4778,73.0583,287.0709,0,U,68142,999,1629,.77367E-3,.24994E-3,0
STARLINK-36995,2026-049B,2026-06-26T07:37:15.678048,15.33445655,.0000405,97.2858,198.5008,114.7607,245.3678,0,U,68143,999,1629,.51353E-3,.1654E-3,0
STARLINK-37020,2026-049C,2026-06-26T13:29:38.562432,15.33428644,.00011637,97.2827,198.7797,131.5810,228.5532,0,U,68144,999,1633,.55606371E-3,.1791E-3,0
STARLINK-36244,2026-049D,2026-06-26T12:11:19.836672,15.33448959,.0000212,97.2827,198.6990,138.7317,221.3942,0,U,68145,999,1632,.63204E-3,.20387E-3,0
STARLINK-36980,2026-049E,2026-06-26T00:38:19.365792,15.33450896,.00016935,97.2840,198.2875,88.0636,272.0800,0,U,68146,999,1625,.7386303E-3,.23851E-3,0
STARLINK-37055,2026-049F,2026-06-26T07:45:05.408064,15.33447745,.0000809,97.2846,198.4949,111.7241,248.4088,0,U,68147,999,1629,.80662E-3,.26058E-3,0
STARLINK-36981,2026-049G,2026-06-26T07:21:35.549280,15.33421906,.0001144,97.2844,198.5139,87.6216,272.5157,0,U,68148,999,1629,.43491E-3,.13981E-3,0
STARLINK-36992,2026-049H,2026-06-26T00:42:16.707456,15.33394435,.00011125,97.2866,198.2817,74.4942,285.6423,0,U,68149,999,1625,.13048066E-2,.42218E-3,0
STARLINK-37060,2026-049J,2026-06-26T13:25:43.482720,15.33446503,.0001455,97.2853,198.7814,143.4267,216.7075,0,U,68150,999,1633,.69941E-3,.22573E-3,0
STARLINK-37073,2026-049K,2026-06-26T07:17:41.020800,15.33447854,.0000952,97.2855,198.5187,94.1780,265.9572,0,U,68151,999,1629,.60469E-3,.19499E-3,0
STARLINK-37049,2026-049L,2026-06-26T00:34:24.464928,15.33443430,.00015671,97.2840,198.2893,85.9828,274.1594,0,U,68152,999,1625,.51056691E-3,.16443E-3,0
STARLINK-37072,2026-049M,2026-06-26T07:25:30.831168,15.33443007,.0000642,97.2848,198.5135,69.3265,290.8046,0,U,68153,999,1629,.61922E-3,.19967E-3,0
STARLINK-36241,2026-049N,2026-06-26T00:22:39.586944,15.33448415,.00010826,97.2834,198.1468,102.6766,257.4598,0,U,68154,999,1624,.72689044E-3,.23467E-3,0
STARLINK-37048,2026-049P,2026-06-26T00:26:36.424032,15.33440131,.00011278,97.2834,198.1458,113.4525,246.6836,0,U,68155,999,1624,.71605955E-3,.23109E-3,0
STARLINK-36313,2026-049Q,2026-06-26T08:08:34.524672,15.33467522,.0001483,97.2837,198.4741,98.8044,261.3367,0,U,68156,999,1629,.83058E-3,.26854E-3,0
STARLINK-37064,2026-049R,2026-06-26T07:05:56.309568,15.33452930,.0000414,97.2839,198.5330,63.9910,296.1375,0,U,68157,999,1629,.64111E-3,.20684E-3,0
STARLINK-37069,2026-049S,2026-06-26T12:46:33.991104,15.33459357,.0000345,97.2858,198.6684,239.8154,120.3054,0,U,68158,999,1632,.75958E-3,.24538E-3,0
STARLINK-37053,2026-049T,2026-06-26T07:33:20.632896,15.33446376,.0000207,97.2853,198.5067,150.3754,209.7501,0,U,68159,999,1629,.61244E-3,.19749E-3,0
STARLINK-36306,2026-049U,2026-06-26T12:30:52.939584,15.33470514,.0001035,97.2838,198.6832,290.3503,69.7628,0,U,68160,999,1632,.46509E-3,.14981E-3,0
STARLINK-37057,2026-049V,2026-06-26T12:38:44.223072,15.33457663,.0000429,97.2857,198.6765,350.4908,9.6326,0,U,68161,999,1632,.7338E-3,.23698E-3,0
STARLINK-37013,2026-049W,2026-06-26T12:23:04.579008,15.33448580,.0000134,97.2835,198.6908,307.0319,53.0912,0,U,68162,999,1632,.60447E-3,.19492E-3,0
STARLINK-36958,2026-049X,2026-06-26T00:30:29.471616,15.33449645,.00015807,97.2840,198.1414,90.0985,270.0439,0,U,68163,999,1624,.72609413E-3,.23443E-3,0
STARLINK-37002,2026-049Y,2026-06-26T07:52:55.258176,15.33447716,.0000355,97.2846,198.4864,83.6716,276.4567,0,U,68164,999,1629,.70929E-3,.22895E-3,0
STARLINK-36971,2026-049Z,2026-06-25T23:12:11.132928,15.33446472,.00014686,97.2840,198.2151,78.0760,282.0648,0,U,68165,999,1624,.71482088E-3,.23074E-3,0
STARLINK-36273,2026-049AA,2026-06-26T11:26:28.442112,15.33461530,.0000689,97.2858,199.5080,19.2152,340.9116,0,U,68166,999,1637,.75757E-3,.24474E-3,0
STARLINK-36969,2026-050A,2026-06-26T13:10:07.639392,15.34401763,.0001789,53.1580,119.4391,84.3836,275.7370,0,U,68167,999,1737,.50461E-3,.16712E-3,0
STARLINK-36984,2026-050B,2026-06-26T13:01:02.343072,15.34407221,.0001443,53.1561,119.4087,69.3503,290.7654,0,U,68168,999,1737,.53453E-3,.17731E-3,0
STARLINK-37077,2026-050C,2026-06-26T02:58:59.869920,15.34420109,.00013631,53.1577,121.7647,144.6664,215.4429,0,U,68169,999,1730,.80892909E-3,.27071E-3,0
STARLINK-37003,2026-050D,2026-06-26T12:45:53.273376,15.34372895,.0001232,53.1587,119.3280,72.6003,287.5134,0,U,68170,999,1737,.58902E-3,.1956E-3,0
STARLINK-37034,2026-050E,2026-06-26T13:28:18.479136,15.34401622,.0001423,53.1576,119.5123,85.2361,274.8804,0,U,68171,999,1737,.68289E-3,.22768E-3,0
STARLINK-37031,2026-050F,2026-06-26T02:55:58.305504,15.34406043,.00010677,53.1580,121.7483,76.6456,283.4665,0,U,68172,999,1730,.79932731E-3,.26732E-3,0
STARLINK-37076,2026-050G,2026-06-25T23:57:28.201248,15.34405086,.00009787,53.1564,122.3897,72.1420,287.9689,0,U,68173,999,1728,.83443376E-3,.27926E-3,0
STARLINK-37078,2026-050H,2026-06-26T13:49:30.402048,15.34412422,.0001806,53.1562,119.5984,59.3317,300.7864,0,U,68174,999,1737,.6564E-3,.21875E-3,0
STARLINK-36886,2026-050J,2026-06-26T12:58:00.346656,15.34410206,.0001124,53.1558,119.3727,100.1148,259.9981,0,U,68175,999,1737,.81489E-3,.27265E-3,0
STARLINK-36905,2026-050K,2026-06-26T13:46:29.038944,15.34401896,.0001213,53.1581,119.5809,95.3185,264.7956,0,U,68176,999,1737,.8271E-3,.27674E-3,0
STARLINK-36668,2026-050L,2026-06-26T13:07:05.877120,15.34399946,.0000926,53.1572,119.4334,92.6322,267.4787,0,U,68177,999,1737,.46568E-3,.1539E-3,0
STARLINK-36677,2026-050M,2026-06-26T13:22:14.712672,15.34396697,.0001285,53.1561,119.4721,92.2090,267.9060,0,U,68178,999,1737,.57741E-3,.1918E-3,0
STARLINK-37052,2026-050N,2026-06-26T03:41:17.448288,15.34404596,.00018315,53.1590,121.2357,101.6670,258.4539,0,U,68179,999,1731,.72670419E-3,.2426E-3,0
STARLINK-37035,2026-050P,2026-06-26T03:53:23.956512,15.34382103,.00016724,53.1587,121.2878,31.3817,328.7286,0,U,68180,999,1731,-.64809604E-3,-.22197E-3,0
STARLINK-37032,2026-050Q,2026-06-26T13:40:25.618944,15.34393141,.0001363,53.1592,119.5651,89.5114,270.6044,0,U,68181,999,1737,.10345E-2,.3473E-3,0
STARLINK-37082,2026-050R,2026-06-26T13:43:28.886304,15.34341042,.0000631,53.1579,119.5797,179.1949,180.9055,0,U,68182,999,1737,.68728E-3,.22872E-3,0
STARLINK-37102,2026-050S,2026-06-26T13:13:09.427584,15.34394164,.0001107,53.1604,119.4488,88.2849,271.8281,0,U,68183,999,1737,.7901E-3,.26408E-3,0
STARLINK-36964,2026-050T,2026-06-26T13:34:21.427392,15.34378402,.0001531,53.1587,119.5359,98.9607,261.1569,0,U,68184,999,1737,.58631E-5,-.178E-5,0
STARLINK-37061,2026-050U,2026-06-26T01:43:15.339648,15.34401593,.00010764,53.1566,121.4280,79.1790,280.9334,0,U,68185,999,1730,.90927912E-3,.30472E-3,0
STARLINK-37079,2026-050V,2026-06-26T12:54:57.854304,15.34431835,.0001105,53.1573,119.3789,85.8299,274.2830,0,U,68186,999,1737,.10139E-2,.34072E-3,0
STARLINK-37006,2026-050W,2026-06-26T03:02:01.862880,15.34429269,.00009049,53.1569,121.7660,75.2822,284.8281,0,U,68187,999,1730,.11111194E-2,.37387E-3,0
STARLINK-36305,2026-050Y,2026-06-26T00:03:33.212736,15.34356456,.00012301,53.1566,122.4161,99.3834,260.7307,0,U,68189,999,1718,.35637187E-3,.11667E-3,0
STARLINK-37071,2026-050Z,2026-06-26T00:00:29.904768,15.34394538,.00009032,53.1563,122.3984,73.8001,286.3101,0,U,68190,999,1728,.66782928E-3,.22251E-3,0
STARLINK-37091,2026-050AA,2026-06-26T13:31:20.287200,15.34365546,.0001517,53.1581,119.5131,87.5769,272.5407,0,U,68191,999,1737,.89333E-3,.29894E-3,0
STARLINK-37098,2026-050AB,2026-06-26T13:19:13.133568,15.34391555,.0001646,53.1579,119.4626,81.9787,278.1402,0,U,68192,999,1737,.45428E-3,.14999E-3,0
STARLINK-37090,2026-050AC,2026-06-26T13:37:23.644992,15.34410411,.0001315,53.1587,119.5420,88.1927,271.9226,0,U,68193,999,1737,.95862E-3,.32162E-3,0
STARLINK-37093,2026-050AD,2026-06-26T13:25:16.518144,15.34388983,.0001081,53.1582,119.4889,82.9284,277.1842,0,U,68194,999,1737,.74223E-3,.24775E-3,0
STARLINK-37058,2026-050AE,2026-06-26T12:51:56.792736,15.34401808,.0001209,53.1562,119.3429,61.5268,298.5856,0,U,68195,999,1581,.67664E-3,.22555E-3,0
STARLINK-36986,2026-053A,2026-06-26T09:34:06.912768,15.33439870,.0002231,97.2878,52.3253,84.9950,275.1548,0,U,68207,999,1687,.16591E-2,.53862E-3,0
STARLINK-37009,2026-053B,2026-06-26T14:12:03.919392,15.33438557,.0001937,97.2877,52.5228,96.1343,264.0120,0,U,68208,999,1690,.72346E-3,.23349E-3,0
STARLINK-36948,2026-053C,2026-06-26T14:08:08.982240,15.33441435,.0001958,97.2870,52.5257,93.6999,266.4468,0,U,68209,999,1688,.9018E-3,.29149E-3,0
STARLINK-37119,2026-053D,2026-06-26T14:04:14.172960,15.33457818,.0002549,97.2887,52.5293,81.7315,278.4216,0,U,68210,999,1690,.64987E-3,.20973E-3,0
STARLINK-37120,2026-053E,2026-06-26T09:18:24.255936,15.33461625,.0000396,97.2915,52.3406,135.4311,224.6964,0,U,68211,999,1685,.54071E-3,.1743E-3,0
STARLINK-37117,2026-053F,2026-06-26T09:14:31.052832,15.33402007,.0002212,97.2882,52.3441,100.1383,260.0109,0,U,68212,999,1687,.33159E-3,.10631E-3,0
STARLINK-37116,2026-053G,2026-06-26T15:26:26.895840,15.33462075,.0001866,97.2869,52.6049,98.1283,262.0172,0,U,68213,999,1691,.48836E-3,.15733E-3,0
STARLINK-35854,2026-053H,2026-06-26T14:43:23.363904,15.33437878,.0001721,97.2875,52.6367,99.5464,260.5973,0,U,68214,999,1689,.92238E-3,.29814E-3,0
